{"type": "FeatureCollection", "features": [ {"type": "Feature", "properties": {"norad_id": 33841, "name": "COSMOS 2251 DEB", "group": "cosmos-2251-debris", "lat": -73.55591495835087, "lon": 151.03957210550885, "alt_km": 766.6526638731839, "timestamp": "2025-12-25T03:55:56.760081+00:00", "meta": {"OBJECT_NAME": "COSMOS 2251 DEB", "OBJECT_ID": "1993-036CJ", "EPOCH": "2025-12-24T18:36:49.756032", "MEAN_MOTION": 14.37876835, "ECCENTRICITY": 0.0021012, "INCLINATION": 74.0374, "RA_OF_ASC_NODE": 255.8825, "ARG_OF_PERICENTER": 334.1055, "MEAN_ANOMALY": 83.1024, "EPHEMERIS_TYPE": 0, "CLASSIFICATION_TYPE": "U", "NORAD_CAT_ID": 33841, "ELEMENT_SET_NO": 999, "REV_AT_EPOCH": 88287, "BSTAR": 0.00020211, "MEAN_MOTION_DOT": 5.85e-06, "MEAN_MOTION_DDOT": 0}, "tle": {"line1": "1 33841U 93036CJ  25358.77557588  .00000585  00000+0  20211-3 0  9991", "line2": "2 33841  74.0374 255.8825 0021012 334.1055  83.1024 14.37876835882871"}}, "geometry": {"type": "Point", "coordinates": [151.03957210550885, -73.55591495835087]}}, {"type": "Feature", "properties": {"norad_id": 33842, "name": "COSMOS 2251 DEB", "group": "cosmos-2251-debris", "lat": 16.974857872598548, "lon": -158.3950092570784, "alt_km": 741.53298799823, "timestamp": "2025-12-25T03:55:56.760092+00:00", "meta": {"OBJECT_NAME": "COSMOS 2251 DEB", "OBJECT_ID": "1993-036CK", "EPOCH": "2025-12-24T14:32:14.947584", "MEAN_MOTION": 14.42718811, "ECCENTRICITY": 0.0047576, "INCLINATION": 74.0315, "RA_OF_ASC_NODE": 197.6264, "ARG_OF_PERICENTER": 302.625, "MEAN_ANOMALY": 57.0319, "EPHEMERIS_TYPE": 0, "CLASSIFICATION_TYPE": "U", "NORAD_CAT_ID": 33842, "ELEMENT_SET_NO": 999, "REV_AT_EPOCH": 88508, "BSTAR": 0.00024194, "MEAN_MOTION_DOT": 7.89e-06, "MEAN_MOTION_DDOT": 0}, "tle": {"line1": "1 33842U 93036CK  25358.60572856  .00000789  00000+0  24194-3 0  9999", "line2": "2 33842  74.0315 197.6264 0047576 302.6250  57.0319 14.42718811885085"}}, "geometry": {"type": "Point", "coordinates": [-158.3950092570784, 16.974857872598548]}}, {"type": "Feature", "properties": {"norad_id": 33844, "name": "COSMOS 2251 DEB", "group": "cosmos-2251-debris", "lat": -73.60379507708102, "lon": -73.76580903588923, "alt_km": 812.7737854723291, "timestamp": "2025-12-25T03:55:56.760102+00:00", "meta": {"OBJECT_NAME": "COSMOS 2251 DEB", "OBJECT_ID": "1993-036CM", "EPOCH": "2025-12-24T13:51:21.851136", "MEAN_MOTION": 14.33738914, "ECCENTRICITY": 0.004719, "INCLINATION": 74.0665, "RA_OF_ASC_NODE": 31.1669, "ARG_OF_PERICENTER": 49.3164, "MEAN_ANOMALY": 71.073, "EPHEMERIS_TYPE": 0, "CLASSIFICATION_TYPE": "U", "NORAD_CAT_ID": 33844, "ELEMENT_SET_NO": 999, "REV_AT_EPOCH": 87895, "BSTAR": 0.00033574, "MEAN_MOTION_DOT": 9.19e-06, "MEAN_MOTION_DDOT": 0}, "tle": {"line1": "1 33844U 93036CM  25358.57733624  .00000919  00000+0  33574-3 0  9996", "line2": "2 33844  74.0665  31.1669 0047190  49.3164  71.0730 14.33738914878954"}}, "geometry": {"type": "Point", "coordinates": [-73.76580903588923, -73.60379507708102]}}, {"type": "Feature", "properties": {"norad_id": 33848, "name": "COSMOS 2251 DEB", "group": "cosmos-2251-debris", "lat": -9.206707797847873, "lon": 157.1851722338568, "alt_km": 777.014866649848, "timestamp": "2025-12-25T03:55:56.760113+00:00", "meta": {"OBJECT_NAME": "COSMOS 2251 DEB", "OBJECT_ID": "1993-036CR", "EPOCH": "2025-12-24T00:46:10.194816", "MEAN_MOTION": 14.44136505, "ECCENTRICITY": 0.00418394, "INCLINATION": 74.0324, "RA_OF_ASC_NODE": 336.6302, "ARG_OF_PERICENTER": 29.1703, "MEAN_ANOMALY": 38.4679, "EPHEMERIS_TYPE": 0, "CLASSIFICATION_TYPE": "U", "NORAD_CAT_ID": 33848, "ELEMENT_SET_NO": 999, "REV_AT_EPOCH": 87994, "BSTAR": 0.0011680933, "MEAN_MOTION_DOT": 4.022e-05, "MEAN_MOTION_DDOT": 0}, "tle": {"line1": "1 33848U 93036CR  25358.03206244  .00004022  00000+0  11681-2 0  9997", "line2": "2 33848  74.0324 336.6302 0041839  29.1703  38.4679 14.44136505879945"}}, "geometry": {"type": "Point", "coordinates": [157.1851722338568, -9.206707797847873]}}, {"type": "Feature", "properties": {"norad_id": 33892, "name": "COSMOS 2251 DEB", "group": "cosmos-2251-debris", "lat": -73.62361234013707, "lon": -19.071607288500612, "alt_km": 896.339647700439, "timestamp": "2025-12-25T03:55:56.760123+00:00", "meta": {"OBJECT_NAME": "COSMOS 2251 DEB", "OBJECT_ID": "1993-036CV", "EPOCH": "2025-12-24T06:42:31.028256", "MEAN_MOTION": 14.23374829, "ECCENTRICITY": 0.0112196, "INCLINATION": 73.8024, "RA_OF_ASC_NODE": 81.0058, "ARG_OF_PERICENTER": 109.9731, "MEAN_ANOMALY": 307.537, "EPHEMERIS_TYPE": 0, "CLASSIFICATION_TYPE": "U", "NORAD_CAT_ID": 33892, "ELEMENT_SET_NO": 999, "REV_AT_EPOCH": 87119, "BSTAR": 0.0006029331, "MEAN_MOTION_DOT": 1.433e-05, "MEAN_MOTION_DDOT": 0}, "tle": {"line1": "1 33892U 93036CV  25358.27952579  .00001433  00000+0  60293-3 0  9998", "line2": "2 33892  73.8024  81.0058 0112196 109.9731 307.5370 14.23374829871197"}}, "geometry": {"type": "Point", "coordinates": [-19.071607288500612, -73.62361234013707]}}, {"type": "Feature", "properties": {"norad_id": 33894, "name": "COSMOS 2251 DEB", "group": "cosmos-2251-debris", "lat": -53.135168614759756, "lon": -53.008708401126995, "alt_km": 924.7798595560525, "timestamp": "2025-12-25T03:55:56.760133+00:00", "meta": {"OBJECT_NAME": "COSMOS 2251 DEB", "OBJECT_ID": "1993-036CX", "EPOCH": "2025-12-24T15:29:38.328000", "MEAN_MOTION": 13.21326885, "ECCENTRICITY": 0.0578708, "INCLINATION": 73.7663, "RA_OF_ASC_NODE": 330.6551, "ARG_OF_PERICENTER": 248.5012, "MEAN_ANOMALY": 105.345, "EPHEMERIS_TYPE": 0, "CLASSIFICATION_TYPE": "U", "NORAD_CAT_ID": 33894, "ELEMENT_SET_NO": 999, "REV_AT_EPOCH": 80865, "BSTAR": 0.00057503, "MEAN_MOTION_DOT": 5.48e-06, "MEAN_MOTION_DDOT": 0}, "tle": {"line1": "1 33894U 93036CX  25358.64558250  .00000548  00000+0  57503-3 0  9995", "line2": "2 33894  73.7663 330.6551 0578708 248.5012 105.3450 13.21326885808655"}}, "geometry": {"type": "Point", "coordinates": [-53.008708401126995, -53.135168614759756]}}, {"type": "Feature", "properties": {"norad_id": 33896, "name": "COSMOS 2251 DEB", "group": "cosmos-2251-debris", "lat": 34.76345716167454, "lon": -57.539270331587126, "alt_km": 913.9933568770402, "timestamp": "2025-12-25T03:55:56.760144+00:00", "meta": {"OBJECT_NAME": "COSMOS 2251 DEB", "OBJECT_ID": "1993-036CZ", "EPOCH": "2025-12-24T19:30:26.180064", "MEAN_MOTION": 14.19065824, "ECCENTRICITY": 0.0127161, "INCLINATION": 73.7665, "RA_OF_ASC_NODE": 134.7644, "ARG_OF_PERICENTER": 308.5126, "MEAN_ANOMALY": 202.6809, "EPHEMERIS_TYPE": 0, "CLASSIFICATION_TYPE": "U", "NORAD_CAT_ID": 33896, "ELEMENT_SET_NO": 999, "REV_AT_EPOCH": 86911, "BSTAR": 0.00059672, "MEAN_MOTION_DOT": 1.324e-05, "MEAN_MOTION_DDOT": 0}, "tle": {"line1": "1 33896U 93036CZ  25358.81280301  .00001324  00000+0  59672-3 0  9997", "line2": "2 33896  73.7665 134.7644 0127161 308.5126 202.6809 14.19065824869119"}}, "geometry": {"type": "Point", "coordinates": [-57.539270331587126, 34.76345716167454]}}, {"type": "Feature", "properties": {"norad_id": 33899, "name": "COSMOS 2251 DEB", "group": "cosmos-2251-debris", "lat": -63.65499907341541, "lon": -82.73719044116768, "alt_km": 719.914118878849, "timestamp": "2025-12-25T03:55:56.760154+00:00", "meta": {"OBJECT_NAME": "COSMOS 2251 DEB", "OBJECT_ID": "1993-036DC", "EPOCH": "2025-12-24T14:13:36.673248", "MEAN_MOTION": 14.61285545, "ECCENTRICITY": 0.0055992, "INCLINATION": 74.0532, "RA_OF_ASC_NODE": 63.0858, "ARG_OF_PERICENTER": 122.2675, "MEAN_ANOMALY": 3.0027, "EPHEMERIS_TYPE": 0, "CLASSIFICATION_TYPE": "U", "NORAD_CAT_ID": 33899, "ELEMENT_SET_NO": 999, "REV_AT_EPOCH": 89012, "BSTAR": 0.00081213, "MEAN_MOTION_DOT": 4.071e-05, "MEAN_MOTION_DDOT": 0}, "tle": {"line1": "1 33899U 93036DC  25358.59278557  .00004071  00000+0  81213-3 0  9993", "line2": "2 33899  74.0532  63.0858 0055992 122.2675   3.0027 14.61285545890123"}}, "geometry": {"type": "Point", "coordinates": [-82.73719044116768, -63.65499907341541]}}, {"type": "Feature", "properties": {"norad_id": 33900, "name": "COSMOS 2251 DEB", "group": "cosmos-2251-debris", "lat": 23.375823185894966, "lon": 149.0752028406495, "alt_km": 669.3650923091336, "timestamp": "2025-12-25T03:55:56.760164+00:00", "meta": {"OBJECT_NAME": "COSMOS 2251 DEB", "OBJECT_ID": "1993-036DD", "EPOCH": "2025-12-24T16:30:28.600128", "MEAN_MOTION": 14.58387962, "ECCENTRICITY": 0.0046346, "INCLINATION": 74.0196, "RA_OF_ASC_NODE": 337.0969, "ARG_OF_PERICENTER": 125.6688, "MEAN_ANOMALY": 51.4038, "EPHEMERIS_TYPE": 0, "CLASSIFICATION_TYPE": "U", "NORAD_CAT_ID": 33900, "ELEMENT_SET_NO": 999, "REV_AT_EPOCH": 89210, "BSTAR": 0.00042568, "MEAN_MOTION_DOT": 1.972e-05, "MEAN_MOTION_DDOT": 0}, "tle": {"line1": "1 33900U 93036DD  25358.68783102  .00001972  00000+0  42568-3 0  9990", "line2": "2 33900  74.0196 337.0969 0046346 125.6688  51.4038 14.58387962892104"}}, "geometry": {"type": "Point", "coordinates": [149.0752028406495, 23.375823185894966]}}, {"type": "Feature", "properties": {"norad_id": 33901, "name": "COSMOS 2251 DEB", "group": "cosmos-2251-debris", "lat": -36.08883857441881, "lon": -144.77193006374526, "alt_km": 511.48670494647195, "timestamp": "2025-12-25T03:55:56.760174+00:00", "meta": {"OBJECT_NAME": "COSMOS 2251 DEB", "OBJECT_ID": "1993-036DE", "EPOCH": "2025-12-24T19:03:54.099360", "MEAN_MOTION": 15.17162716, "ECCENTRICITY": 0.0029746, "INCLINATION": 73.7737, "RA_OF_ASC_NODE": 23.7552, "ARG_OF_PERICENTER": 153.8707, "MEAN_ANOMALY": 206.3997, "EPHEMERIS_TYPE": 0, "CLASSIFICATION_TYPE": "U", "NORAD_CAT_ID": 33901, "ELEMENT_SET_NO": 999, "REV_AT_EPOCH": 89696, "BSTAR": 0.0027269, "MEAN_MOTION_DOT": 0.00055142, "MEAN_MOTION_DDOT": 0}, "tle": {"line1": "1 33901U 93036DE  25358.79437615  .00055142  00000+0  27269-2 0  9996", "line2": "2 33901  73.7737  23.7552 0029746 153.8707 206.3997 15.17162716896966"}}, "geometry": {"type": "Point", "coordinates": [-144.77193006374526, -36.08883857441881]}}]}